CSG-2                   
1 51444U 22008A   26115.83194405  .00000294  00000+0  43433-4 0  9994
2 51444  97.8892 300.1882 0001414  82.5317 277.6057 14.82150944228836
GAOFEN-12 03            
1 52912U 22069A   26115.79110257  .00000975  00000+0  13583-3 0  9998
2 52912  97.8338   4.9672 0001299  46.6503 313.4817 14.79947875206862
SWOT                    
1 54754U 22173A   26115.46940145  .00000014  00000+0  11104-4 0  9993
2 54754  77.6075 106.4745 0000762 155.7253 204.3934 14.00170404171778
GAOFEN-12 04            
1 57654U 23123A   26115.54397568  .00000960  00000+0  13339-3 0  9996
2 57654  97.9132  34.3198 0001280  88.9505 271.1854 14.80122848144841
PARS 1                  
1 59065U 24039Q   26115.85898407  .00012269  00000+0  26516-3 0  9999
2 59065  97.4800  95.1851 0007791 313.3052  46.7546 15.44625359120565
RESURS-P 4              
1 59371U 24061A   26115.81316056  .00003139  00000+0  10467-3 0  9999
2 59371  97.2714  64.6494 0002640  61.2912 298.8595 15.31816636115747
LEGION 1                
1 59625U 24081A   26115.77751300  .00004181  00000+0  21631-3 0  9996
2 59625  97.5023 194.1884 0009743 192.9506 167.1479 15.16751107109598
LEGION 2                
1 59626U 24081B   26115.81115828  .00004229  00000+0  21726-3 0  9999
2 59626  97.5023 194.3109 0011300 166.2171 193.9373 15.16982616109608
ALOS-4 (DAICHI-4)       
1 60182U 24123A   26115.54012965  .00000608  00000+0  88331-4 0  9996
2 60182  97.9210 213.4605 0001651 101.2881 258.8516 14.79464559 98097
LEGION 3                
1 60452U 24146A   26115.87102367  .00005157  00000+0  27999-3 0  9999
2 60452  45.0019 311.0506 0008693 227.1602 132.8546 15.15638677 94089
LEGION 4                
1 60453U 24146B   26115.86990138  .00007422  00000+0  40566-3 0  9992
2 60453  45.0023  42.9110 0010650  20.6648 339.4659 15.14842861 92931
SENTINEL-2C             
1 60989U 24157A   26115.79493477  .00000088  00000+0  50215-4 0  9998
2 60989  98.5633 191.3235 0001477 103.1175 257.0173 14.30816196 85499
IONOSFERA-M 1           
1 61735U 24199A   26115.80079105  .00000048  00000+0  40963-4 0  9999
2 61735  98.7245 349.5075 0000511  19.0895 341.0302 14.22744241120255
IONOSFERA-M 2           
1 61736U 24199B   26115.83520553  .00000053  00000+0  43459-4 0  9990
2 61736  98.7244 349.4527 0001926  98.2966 261.8430 14.22747115123386
BIOMASS                 
1 63772U 25090A   26115.53311321  .00000951  00000+0  17615-3 0  9992
2 63772  98.0752 303.6093 0001339  86.8391 273.2967 14.67536485 52960
GOSAT-GW (IBUKI GW)     
1 64694U 25141A   26114.53135333  .00000991  00000+0  18320-3 0  9997
2 64694  98.0549  52.7278 0001406  81.6853 278.4511 14.67554948 43973
IONOSFERA-M 3           
1 64876U 25155A   26115.52448323  .00000056  00000+0  45148-4 0  9991
2 64876  98.5990  78.7674 0002002  46.5598 313.5746 14.21476901 38929
