[{"OBJECT_NAME":"CSG-2","OBJECT_ID":"2022-008A","EPOCH":"2026-04-25T19:57:59.965920","MEAN_MOTION":14.82150944,"ECCENTRICITY":0.0001414,"INCLINATION":97.8892,"RA_OF_ASC_NODE":300.1882,"ARG_OF_PERICENTER":82.5317,"MEAN_ANOMALY":277.6057,"EPHEMERIS_TYPE":0,"CLASSIFICATION_TYPE":"U","NORAD_CAT_ID":51444,"ELEMENT_SET_NO":999,"REV_AT_EPOCH":22883,"BSTAR":4.3433e-5,"MEAN_MOTION_DOT":2.94e-6,"MEAN_MOTION_DDOT":0},{"OBJECT_NAME":"GAOFEN-12 03","OBJECT_ID":"2022-069A","EPOCH":"2026-04-25T18:59:11.262048","MEAN_MOTION":14.79947875,"ECCENTRICITY":0.0001299,"INCLINATION":97.8338,"RA_OF_ASC_NODE":4.9672,"ARG_OF_PERICENTER":46.6503,"MEAN_ANOMALY":313.4817,"EPHEMERIS_TYPE":0,"CLASSIFICATION_TYPE":"U","NORAD_CAT_ID":52912,"ELEMENT_SET_NO":999,"REV_AT_EPOCH":20686,"BSTAR":0.00013583,"MEAN_MOTION_DOT":9.75e-6,"MEAN_MOTION_DDOT":0},{"OBJECT_NAME":"SWOT","OBJECT_ID":"2022-173A","EPOCH":"2026-04-25T11:15:56.285280","MEAN_MOTION":14.00170404,"ECCENTRICITY":7.62e-5,"INCLINATION":77.6075,"RA_OF_ASC_NODE":106.4745,"ARG_OF_PERICENTER":155.7253,"MEAN_ANOMALY":204.3934,"EPHEMERIS_TYPE":0,"CLASSIFICATION_TYPE":"U","NORAD_CAT_ID":54754,"ELEMENT_SET_NO":999,"REV_AT_EPOCH":17177,"BSTAR":1.1104e-5,"MEAN_MOTION_DOT":1.4e-7,"MEAN_MOTION_DDOT":0},{"OBJECT_NAME":"GAOFEN-12 04","OBJECT_ID":"2023-123A","EPOCH":"2026-04-25T13:03:19.498752","MEAN_MOTION":14.80122848,"ECCENTRICITY":0.000128,"INCLINATION":97.9132,"RA_OF_ASC_NODE":34.3198,"ARG_OF_PERICENTER":88.9505,"MEAN_ANOMALY":271.1854,"EPHEMERIS_TYPE":0,"CLASSIFICATION_TYPE":"U","NORAD_CAT_ID":57654,"ELEMENT_SET_NO":999,"REV_AT_EPOCH":14484,"BSTAR":0.00013339,"MEAN_MOTION_DOT":9.6e-6,"MEAN_MOTION_DDOT":0},{"OBJECT_NAME":"PARS 1","OBJECT_ID":"2024-039Q","EPOCH":"2026-04-25T20:36:56.223648","MEAN_MOTION":15.44625359,"ECCENTRICITY":0.0007791,"INCLINATION":97.48,"RA_OF_ASC_NODE":95.1851,"ARG_OF_PERICENTER":313.3052,"MEAN_ANOMALY":46.7546,"EPHEMERIS_TYPE":0,"CLASSIFICATION_TYPE":"U","NORAD_CAT_ID":59065,"ELEMENT_SET_NO":999,"REV_AT_EPOCH":12056,"BSTAR":0.00026516,"MEAN_MOTION_DOT":0.00012269,"MEAN_MOTION_DDOT":0},{"OBJECT_NAME":"RESURS-P 4","OBJECT_ID":"2024-061A","EPOCH":"2026-04-25T19:30:57.072384","MEAN_MOTION":15.31816636,"ECCENTRICITY":0.000264,"INCLINATION":97.2714,"RA_OF_ASC_NODE":64.6494,"ARG_OF_PERICENTER":61.2912,"MEAN_ANOMALY":298.8595,"EPHEMERIS_TYPE":0,"CLASSIFICATION_TYPE":"U","NORAD_CAT_ID":59371,"ELEMENT_SET_NO":999,"REV_AT_EPOCH":11574,"BSTAR":0.00010467,"MEAN_MOTION_DOT":3.139e-5,"MEAN_MOTION_DDOT":0},{"OBJECT_NAME":"LEGION 1","OBJECT_ID":"2024-081A","EPOCH":"2026-04-25T18:39:37.123200","MEAN_MOTION":15.16751107,"ECCENTRICITY":0.0009743,"INCLINATION":97.5023,"RA_OF_ASC_NODE":194.1884,"ARG_OF_PERICENTER":192.9506,"MEAN_ANOMALY":167.1479,"EPHEMERIS_TYPE":0,"CLASSIFICATION_TYPE":"U","NORAD_CAT_ID":59625,"ELEMENT_SET_NO":999,"REV_AT_EPOCH":10959,"BSTAR":0.00021631,"MEAN_MOTION_DOT":4.181e-5,"MEAN_MOTION_DDOT":0},{"OBJECT_NAME":"LEGION 2","OBJECT_ID":"2024-081B","EPOCH":"2026-04-25T19:28:04.075392","MEAN_MOTION":15.16982616,"ECCENTRICITY":0.00113,"INCLINATION":97.5023,"RA_OF_ASC_NODE":194.3109,"ARG_OF_PERICENTER":166.2171,"MEAN_ANOMALY":193.9373,"EPHEMERIS_TYPE":0,"CLASSIFICATION_TYPE":"U","NORAD_CAT_ID":59626,"ELEMENT_SET_NO":999,"REV_AT_EPOCH":10960,"BSTAR":0.00021726,"MEAN_MOTION_DOT":4.229e-5,"MEAN_MOTION_DDOT":0},{"OBJECT_NAME":"ALOS-4 (DAICHI-4)","OBJECT_ID":"2024-123A","EPOCH":"2026-04-25T12:57:47.201760","MEAN_MOTION":14.79464559,"ECCENTRICITY":0.0001651,"INCLINATION":97.921,"RA_OF_ASC_NODE":213.4605,"ARG_OF_PERICENTER":101.2881,"MEAN_ANOMALY":258.8516,"EPHEMERIS_TYPE":0,"CLASSIFICATION_TYPE":"U","NORAD_CAT_ID":60182,"ELEMENT_SET_NO":999,"REV_AT_EPOCH":9809,"BSTAR":8.8331e-5,"MEAN_MOTION_DOT":6.08e-6,"MEAN_MOTION_DDOT":0},{"OBJECT_NAME":"LEGION 3","OBJECT_ID":"2024-146A","EPOCH":"2026-04-25T20:54:16.445088","MEAN_MOTION":15.15638677,"ECCENTRICITY":0.0008693,"INCLINATION":45.0019,"RA_OF_ASC_NODE":311.0506,"ARG_OF_PERICENTER":227.1602,"MEAN_ANOMALY":132.8546,"EPHEMERIS_TYPE":0,"CLASSIFICATION_TYPE":"U","NORAD_CAT_ID":60452,"ELEMENT_SET_NO":999,"REV_AT_EPOCH":9408,"BSTAR":0.00027999,"MEAN_MOTION_DOT":5.157e-5,"MEAN_MOTION_DDOT":0},{"OBJECT_NAME":"LEGION 4","OBJECT_ID":"2024-146B","EPOCH":"2026-04-25T20:52:39.479232","MEAN_MOTION":15.14842861,"ECCENTRICITY":0.001065,"INCLINATION":45.0023,"RA_OF_ASC_NODE":42.911,"ARG_OF_PERICENTER":20.6648,"MEAN_ANOMALY":339.4659,"EPHEMERIS_TYPE":0,"CLASSIFICATION_TYPE":"U","NORAD_CAT_ID":60453,"ELEMENT_SET_NO":999,"REV_AT_EPOCH":9293,"BSTAR":0.00040566,"MEAN_MOTION_DOT":7.422e-5,"MEAN_MOTION_DDOT":0},{"OBJECT_NAME":"SENTINEL-2C","OBJECT_ID":"2024-157A","EPOCH":"2026-04-25T19:04:42.364128","MEAN_MOTION":14.30816196,"ECCENTRICITY":0.0001477,"INCLINATION":98.5633,"RA_OF_ASC_NODE":191.3235,"ARG_OF_PERICENTER":103.1175,"MEAN_ANOMALY":257.0173,"EPHEMERIS_TYPE":0,"CLASSIFICATION_TYPE":"U","NORAD_CAT_ID":60989,"ELEMENT_SET_NO":999,"REV_AT_EPOCH":8549,"BSTAR":5.0215e-5,"MEAN_MOTION_DOT":8.8e-7,"MEAN_MOTION_DDOT":0},{"OBJECT_NAME":"IONOSFERA-M 1","OBJECT_ID":"2024-199A","EPOCH":"2026-04-25T19:13:08.346720","MEAN_MOTION":14.22744241,"ECCENTRICITY":5.11e-5,"INCLINATION":98.7245,"RA_OF_ASC_NODE":349.5075,"ARG_OF_PERICENTER":19.0895,"MEAN_ANOMALY":341.0302,"EPHEMERIS_TYPE":0,"CLASSIFICATION_TYPE":"U","NORAD_CAT_ID":61735,"ELEMENT_SET_NO":999,"REV_AT_EPOCH":12025,"BSTAR":4.0963e-5,"MEAN_MOTION_DOT":4.8e-7,"MEAN_MOTION_DDOT":0},{"OBJECT_NAME":"IONOSFERA-M 2","OBJECT_ID":"2024-199B","EPOCH":"2026-04-25T20:02:41.757792","MEAN_MOTION":14.22747115,"ECCENTRICITY":0.0001926,"INCLINATION":98.7244,"RA_OF_ASC_NODE":349.4527,"ARG_OF_PERICENTER":98.2966,"MEAN_ANOMALY":261.843,"EPHEMERIS_TYPE":0,"CLASSIFICATION_TYPE":"U","NORAD_CAT_ID":61736,"ELEMENT_SET_NO":999,"REV_AT_EPOCH":12338,"BSTAR":4.3459e-5,"MEAN_MOTION_DOT":5.3e-7,"MEAN_MOTION_DDOT":0},{"OBJECT_NAME":"BIOMASS","OBJECT_ID":"2025-090A","EPOCH":"2026-04-25T12:47:40.981344","MEAN_MOTION":14.67536485,"ECCENTRICITY":0.0001339,"INCLINATION":98.0752,"RA_OF_ASC_NODE":303.6093,"ARG_OF_PERICENTER":86.8391,"MEAN_ANOMALY":273.2967,"EPHEMERIS_TYPE":0,"CLASSIFICATION_TYPE":"U","NORAD_CAT_ID":63772,"ELEMENT_SET_NO":999,"REV_AT_EPOCH":5296,"BSTAR":0.00017615,"MEAN_MOTION_DOT":9.51e-6,"MEAN_MOTION_DDOT":0},{"OBJECT_NAME":"GOSAT-GW (IBUKI GW)","OBJECT_ID":"2025-141A","EPOCH":"2026-04-24T12:45:08.927712","MEAN_MOTION":14.67554948,"ECCENTRICITY":0.00014068,"INCLINATION":98.0549,"RA_OF_ASC_NODE":52.7278,"ARG_OF_PERICENTER":81.6853,"MEAN_ANOMALY":278.4511,"EPHEMERIS_TYPE":0,"CLASSIFICATION_TYPE":"U","NORAD_CAT_ID":64694,"ELEMENT_SET_NO":999,"REV_AT_EPOCH":4397,"BSTAR":0.00018319643,"MEAN_MOTION_DOT":9.91e-6,"MEAN_MOTION_DDOT":0},{"OBJECT_NAME":"IONOSFERA-M 3","OBJECT_ID":"2025-155A","EPOCH":"2026-04-25T12:35:15.351072","MEAN_MOTION":14.21476901,"ECCENTRICITY":0.0002002,"INCLINATION":98.599,"RA_OF_ASC_NODE":78.7674,"ARG_OF_PERICENTER":46.5598,"MEAN_ANOMALY":313.5746,"EPHEMERIS_TYPE":0,"CLASSIFICATION_TYPE":"U","NORAD_CAT_ID":64876,"ELEMENT_SET_NO":999,"REV_AT_EPOCH":3892,"BSTAR":4.5148e-5,"MEAN_MOTION_DOT":5.6e-7,"MEAN_MOTION_DDOT":0}]
